{
  "type": "FeatureCollection",
  "features": [
    {
      "type": "Feature",
      "properties": {
        "norad_id": 27954,
        "name": "GALAXY 13 (HORIZONS-1)",
        "group": "intelsat",
        "lat": 0.29617720406517145,
        "lon": 102.85029816254189,
        "alt_km": 35795.4616701577,
        "timestamp": "2025-12-26T10:30:49.927014+00:00",
        "meta_object_name": "GALAXY 13 (HORIZONS-1)",
        "meta_object_id": "2003-044A",
        "meta_epoch": "2025-12-26T02:12:38.791296",
        "meta_mean_motion": 1.00272317,
        "meta_eccentricity": 0.0002303,
        "meta_inclination": 0.9714,
        "meta_ra_of_asc_node": 86.2971,
        "meta_arg_of_pericenter": 186.7106,
        "meta_mean_anomaly": 64.9678,
        "meta_ephemeris_type": 0,
        "meta_classification_type": "U",
        "meta_norad_cat_id": 27954,
        "meta_element_set_no": 999,
        "meta_rev_at_epoch": 4483,
        "meta_bstar": 0,
        "meta_mean_motion_dot": 1.54e-06,
        "meta_mean_motion_ddot": 0,
        "tle_line1": "1 27954U 03044A   25360.09211564  .00000154  00000+0  00000+0 0  9990",
        "tle_line2": "2 27954   0.9714  86.2971 0002303 186.7106  64.9678  1.00272317 44832"
      },
      "geometry": {
        "type": "Point",
        "coordinates": [
          102.85029816254189,
          0.29617720406517145
        ]
      }
    },
    {
      "type": "Feature",
      "properties": {
        "norad_id": 28358,
        "name": "INTELSAT 10-02",
        "group": "intelsat",
        "lat": -0.02432405709572774,
        "lon": -108.07360518515176,
        "alt_km": 35782.5486523467,
        "timestamp": "2025-12-26T10:30:49.927027+00:00",
        "meta_object_name": "INTELSAT 10-02",
        "meta_object_id": "2004-022A",
        "meta_epoch": "2025-12-25T22:47:38.488128",
        "meta_mean_motion": 1.0027262,
        "meta_eccentricity": 0.0001104,
        "meta_inclination": 0.0179,
        "meta_ra_of_asc_node": 38.8886,
        "meta_arg_of_pericenter": 258.4848,
        "meta_mean_anomaly": 138.2885,
        "meta_ephemeris_type": 0,
        "meta_classification_type": "U",
        "meta_norad_cat_id": 28358,
        "meta_element_set_no": 999,
        "meta_rev_at_epoch": 7881,
        "meta_bstar": 0,
        "meta_mean_motion_dot": 1.1e-07,
        "meta_mean_motion_ddot": 0,
        "tle_line1": "1 28358U 04022A   25359.94975102  .00000011  00000+0  00000+0 0  9995",
        "tle_line2": "2 28358   0.0179  38.8886 0001104 258.4848 138.2885  1.00272620 78810"
      },
      "geometry": {
        "type": "Point",
        "coordinates": [
          -108.07360518515176,
          -0.02432405709572774
        ]
      }
    },
    {
      "type": "Feature",
      "properties": {
        "norad_id": 28626,
        "name": "XM-3 (RHYTHM)",
        "group": "intelsat",
        "lat": -0.15023428401610414,
        "lon": -57.969130640025185,
        "alt_km": 36154.915391650014,
        "timestamp": "2025-12-26T10:30:49.927039+00:00",
        "meta_object_name": "XM-3 (RHYTHM)",
        "meta_object_id": "2005-008A",
        "meta_epoch": "2025-12-25T21:53:38.819040",
        "meta_mean_motion": 0.98950334,
        "meta_eccentricity": 0.0002225,
        "meta_inclination": 0.2066,
        "meta_ra_of_asc_node": 82.2869,
        "meta_arg_of_pericenter": 272.6004,
        "meta_mean_anomaly": 119.8578,
        "meta_ephemeris_type": 0,
        "meta_classification_type": "U",
        "meta_norad_cat_id": 28626,
        "meta_element_set_no": 999,
        "meta_rev_at_epoch": 4088,
        "meta_bstar": 0,
        "meta_mean_motion_dot": 8.9e-07,
        "meta_mean_motion_ddot": 0,
        "tle_line1": "1 28626U 05008A   25359.91225485  .00000089  00000+0  00000+0 0  9992",
        "tle_line2": "2 28626   0.2066  82.2869 0002225 272.6004 119.8578  0.98950334 40887"
      },
      "geometry": {
        "type": "Point",
        "coordinates": [
          -57.969130640025185,
          -0.15023428401610414
        ]
      }
    },
    {
      "type": "Feature",
      "properties": {
        "norad_id": 28659,
        "name": "DIRECTV 8",
        "group": "intelsat",
        "lat": 0.02677597477653001,
        "lon": 133.82655218543115,
        "alt_km": 35797.626894623405,
        "timestamp": "2025-12-26T10:30:49.927051+00:00",
        "meta_object_name": "DIRECTV 8",
        "meta_object_id": "2005-019A",
        "meta_epoch": "2025-12-26T04:39:38.472192",
        "meta_mean_motion": 1.00271756,
        "meta_eccentricity": 0.0003114,
        "meta_inclination": 0.0128,
        "meta_ra_of_asc_node": 55.1123,
        "meta_arg_of_pericenter": 229.9878,
        "meta_mean_anomaly": 120.7127,
        "meta_ephemeris_type": 0,
        "meta_classification_type": "U",
        "meta_norad_cat_id": 28659,
        "meta_element_set_no": 999,
        "meta_rev_at_epoch": 7533,
        "meta_bstar": 0,
        "meta_mean_motion_dot": 2.3e-07,
        "meta_mean_motion_ddot": 0,
        "tle_line1": "1 28659U 05019A   25360.19419528  .00000023  00000+0  00000+0 0  9993",
        "tle_line2": "2 28659   0.0128  55.1123 0003114 229.9878 120.7127  1.00271756 75331"
      },
      "geometry": {
        "type": "Point",
        "coordinates": [
          133.82655218543115,
          0.02677597477653001
        ]
      }
    },
    {
      "type": "Feature",
      "properties": {
        "norad_id": 28702,
        "name": "GALAXY 28 (G-28)",
        "group": "intelsat",
        "lat": 2.862752050596843,
        "lon": 171.78451486094175,
        "alt_km": 35689.0243379931,
        "timestamp": "2025-12-26T10:30:49.927062+00:00",
        "meta_object_name": "GALAXY 28 (G-28)",
        "meta_object_id": "2005-022A",
        "meta_epoch": "2025-12-26T03:38:03.596064",
        "meta_mean_motion": 1.00599772,
        "meta_eccentricity": 0.0003476,
        "meta_inclination": 2.8542,
        "meta_ra_of_asc_node": 81.1257,
        "meta_arg_of_pericenter": 160.4398,
        "meta_mean_anomaly": 186.4458,
        "meta_ephemeris_type": 0,
        "meta_classification_type": "U",
        "meta_norad_cat_id": 28702,
        "meta_element_set_no": 999,
        "meta_rev_at_epoch": 5023,
        "meta_bstar": 0,
        "meta_mean_motion_dot": -2.32e-06,
        "meta_mean_motion_ddot": 0,
        "tle_line1": "1 28702U 05022A   25360.15143051 -.00000232  00000+0  00000+0 0  9990",
        "tle_line2": "2 28702   2.8542  81.1257 0003476 160.4398 186.4458  1.00599772 50233"
      },
      "geometry": {
        "type": "Point",
        "coordinates": [
          171.78451486094175,
          2.862752050596843
        ]
      }
    },
    {
      "type": "Feature",
      "properties": {
        "norad_id": 29236,
        "name": "GALAXY 16 (G-16)",
        "group": "intelsat",
        "lat": -0.008704521256487935,
        "lon": 153.84004601977583,
        "alt_km": 35793.06744180359,
        "timestamp": "2025-12-26T10:30:49.927075+00:00",
        "meta_object_name": "GALAXY 16 (G-16)",
        "meta_object_id": "2006-023A",
        "meta_epoch": "2025-12-26T02:31:07.100256",
        "meta_mean_motion": 1.00269716,
        "meta_eccentricity": 0.0002789,
        "meta_inclination": 0.0031,
        "meta_ra_of_asc_node": 236.6116,
        "meta_arg_of_pericenter": 40.0302,
        "meta_mean_anomaly": 116.978,
        "meta_ephemeris_type": 0,
        "meta_classification_type": "U",
        "meta_norad_cat_id": 29236,
        "meta_element_set_no": 999,
        "meta_rev_at_epoch": 7123,
        "meta_bstar": 0,
        "meta_mean_motion_dot": 0,
        "meta_mean_motion_ddot": 0,
        "tle_line1": "1 29236U 06023A   25360.10494329  .00000000  00000+0  00000+0 0  9999",
        "tle_line2": "2 29236   0.0031 236.6116 0002789  40.0302 116.9780  1.00269716 71235"
      },
      "geometry": {
        "type": "Point",
        "coordinates": [
          153.84004601977583,
          -0.008704521256487935
        ]
      }
    },
    {
      "type": "Feature",
      "properties": {
        "norad_id": 29494,
        "name": "DIRECTV 9S",
        "group": "intelsat",
        "lat": 1.8502816731743745,
        "lon": 151.64349597355812,
        "alt_km": 35793.92125719285,
        "timestamp": "2025-12-26T10:30:49.927086+00:00",
        "meta_object_name": "DIRECTV 9S",
        "meta_object_id": "2006-043A",
        "meta_epoch": "2025-12-26T01:32:00.300768",
        "meta_mean_motion": 1.00271558,
        "meta_eccentricity": 0.0003053,
        "meta_inclination": 1.9726,
        "meta_ra_of_asc_node": 83.07,
        "meta_arg_of_pericenter": 196.9132,
        "meta_mean_anomaly": 96.6295,
        "meta_ephemeris_type": 0,
        "meta_classification_type": "U",
        "meta_norad_cat_id": 29494,
        "meta_element_set_no": 999,
        "meta_rev_at_epoch": 4964,
        "meta_bstar": 0,
        "meta_mean_motion_dot": -9.2e-07,
        "meta_mean_motion_ddot": 0,
        "tle_line1": "1 29494U 06043A   25360.06389237 -.00000092  00000+0  00000+0 0  9995",
        "tle_line2": "2 29494   1.9726  83.0700 0003053 196.9132  96.6295  1.00271558 49644"
      },
      "geometry": {
        "type": "Point",
        "coordinates": [
          151.64349597355812,
          1.8502816731743745
        ]
      }
    }
  ]
}